{"type": "FeatureCollection", "features": [ {"type": "Feature", "properties": {"norad_id": 47068, "name": "COSMOS 2251 DEB", "group": "cosmos-2251-debris", "lat": 18.22327442816324, "lon": -141.428334436892, "alt_km": 713.0153210656727, "timestamp": "2025-12-07T14:37:05.602167+00:00", "meta": {"OBJECT_NAME": "COSMOS 2251 DEB", "OBJECT_ID": "1993-036BXY", "EPOCH": "2025-12-05T22:52:31.528416", "MEAN_MOTION": 14.53079346, "ECCENTRICITY": 0.00184568, "INCLINATION": 74.0241, "RA_OF_ASC_NODE": 216.2856, "ARG_OF_PERICENTER": 303.5943, "MEAN_ANOMALY": 56.3457, "EPHEMERIS_TYPE": 0, "CLASSIFICATION_TYPE": "U", "NORAD_CAT_ID": 47068, "ELEMENT_SET_NO": 999, "REV_AT_EPOCH": 61658, "BSTAR": 0.0015277315, "MEAN_MOTION_DOT": 6.306e-05, "MEAN_MOTION_DDOT": 0}, "tle": {"line1": "1 47068U 93036BXY 25339.95314269  .00006306  00000+0  15277-2 0  9995", "line2": "2 47068  74.0241 216.2856 0018456 303.5943  56.3457 14.53079346616584"}}, "geometry": {"type": "Point", "coordinates": [-141.428334436892, 18.22327442816324]}}, {"type": "Feature", "properties": {"norad_id": 47073, "name": "COSMOS 2251 DEB", "group": "cosmos-2251-debris", "lat": -2.0324919800813688, "lon": -149.80641757713542, "alt_km": 914.9270172828474, "timestamp": "2025-12-07T14:37:05.602177+00:00", "meta": {"OBJECT_NAME": "COSMOS 2251 DEB", "OBJECT_ID": "1993-036BYD", "EPOCH": "2025-11-28T23:48:38.837952", "MEAN_MOTION": 14.04684181, "ECCENTRICITY": 0.01626495, "INCLINATION": 74.0833, "RA_OF_ASC_NODE": 225.7586, "ARG_OF_PERICENTER": 267.1836, "MEAN_ANOMALY": 91.0675, "EPHEMERIS_TYPE": 0, "CLASSIFICATION_TYPE": "U", "NORAD_CAT_ID": 47073, "ELEMENT_SET_NO": 999, "REV_AT_EPOCH": 60168, "BSTAR": 0.0003803633, "MEAN_MOTION_DOT": 6.6e-06, "MEAN_MOTION_DDOT": 0}, "tle": {"line1": "1 47073U 93036BYD 25332.99211618  .00000660  00000+0  38036-3 0  9998", "line2": "2 47073  74.0833 225.7586 0162649 267.1836  91.0675 14.04684181601680"}}, "geometry": {"type": "Point", "coordinates": [-149.80641757713542, -2.0324919800813688]}}, {"type": "Feature", "properties": {"norad_id": 47074, "name": "COSMOS 2251 DEB", "group": "cosmos-2251-debris", "lat": -57.94544389937895, "lon": -69.00111416449431, "alt_km": 711.7264398937177, "timestamp": "2025-12-07T14:37:05.602187+00:00", "meta": {"OBJECT_NAME": "COSMOS 2251 DEB", "OBJECT_ID": "1993-036BYE", "EPOCH": "2025-12-03T18:02:52.457856", "MEAN_MOTION": 14.35498744, "ECCENTRICITY": 0.01434773, "INCLINATION": 74.091, "RA_OF_ASC_NODE": 325.1457, "ARG_OF_PERICENTER": 355.2449, "MEAN_ANOMALY": 179.085, "EPHEMERIS_TYPE": 0, "CLASSIFICATION_TYPE": "U", "NORAD_CAT_ID": 47074, "ELEMENT_SET_NO": 999, "REV_AT_EPOCH": 2553, "BSTAR": 0.0029812178, "MEAN_MOTION_DOT": 9.625e-05, "MEAN_MOTION_DDOT": 0}, "tle": {"line1": "1 47074U 93036BYE 25337.75199604  .00009625  00000+0  29812-2 0  9999", "line2": "2 47074  74.0910 325.1457 0143477 355.2449 179.0850 14.35498744 25534"}}, "geometry": {"type": "Point", "coordinates": [-69.00111416449431, -57.94544389937895]}}, {"type": "Feature", "properties": {"norad_id": 47116, "name": "COSMOS 2251 DEB", "group": "cosmos-2251-debris", "lat": 66.54066089254617, "lon": -67.55904297336203, "alt_km": 567.1625726704533, "timestamp": "2025-12-07T14:37:05.602198+00:00", "meta": {"OBJECT_NAME": "COSMOS 2251 DEB", "OBJECT_ID": "1993-036BYJ", "EPOCH": "2025-11-28T02:40:22.126944", "MEAN_MOTION": 14.97052334, "ECCENTRICITY": 0.00224176, "INCLINATION": 74.0247, "RA_OF_ASC_NODE": 270.3586, "ARG_OF_PERICENTER": 5.4926, "MEAN_ANOMALY": 12.2387, "EPHEMERIS_TYPE": 0, "CLASSIFICATION_TYPE": "U", "NORAD_CAT_ID": 47116, "ELEMENT_SET_NO": 999, "REV_AT_EPOCH": 59292, "BSTAR": 0.0024991708, "MEAN_MOTION_DOT": 0.00029033, "MEAN_MOTION_DDOT": 0}, "tle": {"line1": "1 47116U 93036BYJ 25332.11136721  .00029033  00000+0  24992-2 0  9991", "line2": "2 47116  74.0247 270.3586 0022417   5.4926  12.2387 14.97052334592926"}}, "geometry": {"type": "Point", "coordinates": [-67.55904297336203, 66.54066089254617]}}, {"type": "Feature", "properties": {"norad_id": 53093, "name": "COSMOS 2251 DEB", "group": "cosmos-2251-debris", "lat": -33.824879938345454, "lon": 142.02204983461723, "alt_km": 771.6504996355225, "timestamp": "2025-12-07T14:37:05.602208+00:00", "meta": {"OBJECT_NAME": "COSMOS 2251 DEB", "OBJECT_ID": "1993-036BYP", "EPOCH": "2025-12-06T20:58:16.033152", "MEAN_MOTION": 14.41827267, "ECCENTRICITY": 0.00188684, "INCLINATION": 74.0369, "RA_OF_ASC_NODE": 312.3264, "ARG_OF_PERICENTER": 30.8018, "MEAN_ANOMALY": 329.424, "EPHEMERIS_TYPE": 0, "CLASSIFICATION_TYPE": "U", "NORAD_CAT_ID": 53093, "ELEMENT_SET_NO": 999, "REV_AT_EPOCH": 17641, "BSTAR": 0.0016551519, "MEAN_MOTION_DOT": 5.4e-05, "MEAN_MOTION_DDOT": 0}, "tle": {"line1": "1 53093U 93036BYP 25340.87379668  .00005400  00000+0  16552-2 0  9998", "line2": "2 53093  74.0369 312.3264 0018868  30.8018 329.4240 14.41827267176418"}}, "geometry": {"type": "Point", "coordinates": [142.02204983461723, -33.824879938345454]}}]}